[{"OBJECT_NAME":"ONEWEB-0329","OBJECT_ID":"2021-075AJ","EPOCH":"2026-03-09T22:23:54.917664","MEAN_MOTION":13.17648612,"ECCENTRICITY":0.00018946,"INCLINATION":87.9151,"RA_OF_ASC_NODE":25.578,"ARG_OF_PERICENTER":75.9962,"MEAN_ANOMALY":284.138,"EPHEMERIS_TYPE":0,"CLASSIFICATION_TYPE":"U","NORAD_CAT_ID":49107,"ELEMENT_SET_NO":999,"REV_AT_EPOCH":22051,"BSTAR":-3.090357e-5,"MEAN_MOTION_DOT":1.0e-8,"MEAN_MOTION_DDOT":0},{"OBJECT_NAME":"CZ-4C DEB","OBJECT_ID":"2010-059E","EPOCH":"2026-03-09T08:48:23.177952","MEAN_MOTION":13.71352703,"ECCENTRICITY":0.02690884,"INCLINATION":98.6543,"RA_OF_ASC_NODE":275.3464,"ARG_OF_PERICENTER":99.3571,"MEAN_ANOMALY":25.4803,"EPHEMERIS_TYPE":0,"CLASSIFICATION_TYPE":"U","NORAD_CAT_ID":38295,"ELEMENT_SET_NO":999,"REV_AT_EPOCH":65479,"BSTAR":0.00037577364,"MEAN_MOTION_DOT":4.01e-6,"MEAN_MOTION_DDOT":0}]
